[{"OBJECT_NAME":"ONEWEB-0626","OBJECT_ID":"2023-004AD","EPOCH":"2026-03-09T21:37:43.681728","MEAN_MOTION":13.17651985,"ECCENTRICITY":0.00022197,"INCLINATION":87.9145,"RA_OF_ASC_NODE":25.5901,"ARG_OF_PERICENTER":80.7437,"MEAN_ANOMALY":279.3945,"EPHEMERIS_TYPE":0,"CLASSIFICATION_TYPE":"U","NORAD_CAT_ID":55167,"ELEMENT_SET_NO":999,"REV_AT_EPOCH":15450,"BSTAR":-0.0028298824,"MEAN_MOTION_DOT":-1.086e-5,"MEAN_MOTION_DDOT":0},{"OBJECT_NAME":"COSMOS 2499 DEB","OBJECT_ID":"2014-028BJ","EPOCH":"2026-03-09T09:36:03.798144","MEAN_MOTION":12.81411593,"ECCENTRICITY":0.02010241,"INCLINATION":82.2941,"RA_OF_ASC_NODE":306.5426,"ARG_OF_PERICENTER":255.5933,"MEAN_ANOMALY":102.2783,"EPHEMERIS_TYPE":0,"CLASSIFICATION_TYPE":"U","NORAD_CAT_ID":56575,"ELEMENT_SET_NO":999,"REV_AT_EPOCH":14701,"BSTAR":0.00020684116,"MEAN_MOTION_DOT":6.1e-7,"MEAN_MOTION_DDOT":0}]
